start=new Date('2022-09-06T00:00:00.000Z').valueOf();
sats=[{"SITE":"AFETR","ELEMENT_SET_NO":"999","EPOCH":"2022-09-05T22:00:00.999936","FILE":"3559723","PERIAPSIS":"538.619","ARG_OF_PERICENTER":"60.2706","INCLINATION":"53.2172","OBJECT_TYPE":"PAYLOAD","TLE_LINE2":"2 51854  53.2172   8.7293 0001498  60.2706  38.7829 15.08869426  1307","BSTAR":"-0.00559580000000","APOAPSIS":"540.692","ECCENTRICITY":"0.00014980","MEAN_MOTION":"15.08869426","MEAN_MOTION_DDOT":"0.0000000000000","MEAN_MOTION_DOT":"-0.00088325","COUNTRY_CODE":"US","MEAN_ELEMENT_THEORY":"SGP4","CLASSIFICATION_TYPE":"U","RCS_SIZE":"LARGE","NORAD_CAT_ID":"51854","MEAN_ANOMALY":"38.7829","PERIOD":"95.436","REV_AT_EPOCH":"130","GP_ID":"211834620","CENTER_NAME":"EARTH","TIME_SYSTEM":"UTC","LAUNCH_DATE":"2022-03-03","RA_OF_ASC_NODE":"8.7293","TLE_LINE1":"1 51854U 22022C   22248.91667824 -.00088325  00000-0 -55958-2 0  9994","DECAY_DATE":null,"SEMIMAJOR_AXIS":"6917.790","EPHEMERIS_TYPE":"0","OBJECT_ID":"2022-022C","REF_FRAME":"TEME","OBJECT_NAME":"STARLINK-3541"},{"PERIOD":"95.437","MEAN_ANOMALY":"83.3685","NORAD_CAT_ID":"51855","REV_AT_EPOCH":"130","DECAY_DATE":null,"RA_OF_ASC_NODE":"8.7299","TLE_LINE1":"1 51855U 22022D   22248.91667824 -.00070576  00000-0 -44590-2 0  9994","TIME_SYSTEM":"UTC","LAUNCH_DATE":"2022-03-03","GP_ID":"211835871","CENTER_NAME":"EARTH","OBJECT_NAME":"STARLINK-3545","EPHEMERIS_TYPE":"0","REF_FRAME":"TEME","OBJECT_ID":"2022-022D","SEMIMAJOR_AXIS":"6917.852","FILE":"3559723","PERIAPSIS":"538.690","ELEMENT_SET_NO":"999","EPOCH":"2022-09-05T22:00:00.999936","SITE":"AFETR","ARG_OF_PERICENTER":"55.7037","BSTAR":"-0.00445900000000","TLE_LINE2":"2 51855  53.2185   8.7299 0001485  55.7037  83.3685 15.08849223  1309","INCLINATION":"53.2185","OBJECT_TYPE":"PAYLOAD","MEAN_ELEMENT_THEORY":"SGP4","RCS_SIZE":"LARGE","CLASSIFICATION_TYPE":"U","COUNTRY_CODE":"US","MEAN_MOTION_DDOT":"0.0000000000000","MEAN_MOTION_DOT":"-0.00070576","APOAPSIS":"540.744","MEAN_MOTION":"15.08849223","ECCENTRICITY":"0.00014850"},{"SITE":"AFETR","EPOCH":"2022-09-05T22:00:00.999936","ELEMENT_SET_NO":"999","PERIAPSIS":"538.741","FILE":"3559723","ARG_OF_PERICENTER":"68.3429","INCLINATION":"53.2178","OBJECT_TYPE":"PAYLOAD","BSTAR":"-0.00473080000000","TLE_LINE2":"2 51856  53.2178   8.7364 0001357  68.3429  50.6964 15.08861576  1300","APOAPSIS":"540.618","MEAN_MOTION":"15.08861576","ECCENTRICITY":"0.00013570","MEAN_MOTION_DDOT":"0.0000000000000","MEAN_MOTION_DOT":"-0.00074840","COUNTRY_CODE":"US","MEAN_ELEMENT_THEORY":"SGP4","CLASSIFICATION_TYPE":"U","RCS_SIZE":"LARGE","NORAD_CAT_ID":"51856","MEAN_ANOMALY":"50.6964","PERIOD":"95.436","REV_AT_EPOCH":"130","GP_ID":"211836119","CENTER_NAME":"EARTH","LAUNCH_DATE":"2022-03-03","TIME_SYSTEM":"UTC","RA_OF_ASC_NODE":"8.7364","TLE_LINE1":"1 51856U 22022E   22248.91667824 -.00074840  00000-0 -47308-2 0  9993","DECAY_DATE":null,"SEMIMAJOR_AXIS":"6917.814","EPHEMERIS_TYPE":"0","REF_FRAME":"TEME","OBJECT_ID":"2022-022E","OBJECT_NAME":"STARLINK-3568"},{"NORAD_CAT_ID":"51857","PERIOD":"95.436","MEAN_ANOMALY":"120.2653","REV_AT_EPOCH":"130","TIME_SYSTEM":"UTC","LAUNCH_DATE":"2022-03-03","CENTER_NAME":"EARTH","GP_ID":"211834370","DECAY_DATE":null,"TLE_LINE1":"1 51857U 22022F   22248.91667824 -.00070444  00000-0 -44495-2 0  9994","RA_OF_ASC_NODE":"8.7279","OBJECT_ID":"2022-022F","REF_FRAME":"TEME","EPHEMERIS_TYPE":"0","SEMIMAJOR_AXIS":"6917.826","OBJECT_NAME":"STARLINK-3571","SITE":"AFETR","FILE":"3559723","PERIAPSIS":"538.639","ELEMENT_SET_NO":"999","EPOCH":"2022-09-05T22:00:00.999936","ARG_OF_PERICENTER":"58.7779","OBJECT_TYPE":"PAYLOAD","INCLINATION":"53.2180","BSTAR":"-0.00444950000000","TLE_LINE2":"2 51857  53.2180   8.7279 0001520  58.7779 120.2653 15.08857929  1308","MEAN_MOTION_DOT":"-0.00070444","MEAN_MOTION_DDOT":"0.0000000000000","APOAPSIS":"540.742","ECCENTRICITY":"0.00015200","MEAN_MOTION":"15.08857929","CLASSIFICATION_TYPE":"U","RCS_SIZE":"LARGE","MEAN_ELEMENT_THEORY":"SGP4","COUNTRY_CODE":"US"},{"OBJECT_TYPE":"PAYLOAD","INCLINATION":"53.2185","BSTAR":"-0.00408940000000","TLE_LINE2":"2 51858  53.2185   8.7308 0001612  59.0416 100.0351 15.08840598  1306","APOAPSIS":"540.859","MEAN_MOTION":"15.08840598","ECCENTRICITY":"0.00016120","MEAN_MOTION_DOT":"-0.00064787","MEAN_MOTION_DDOT":"0.0000000000000","COUNTRY_CODE":"US","RCS_SIZE":"LARGE","CLASSIFICATION_TYPE":"U","MEAN_ELEMENT_THEORY":"SGP4","SITE":"AFETR","ELEMENT_SET_NO":"999","EPOCH":"2022-09-05T22:00:00.999936","FILE":"3559723","PERIAPSIS":"538.628","ARG_OF_PERICENTER":"59.0416","CENTER_NAME":"EARTH","GP_ID":"211835120","LAUNCH_DATE":"2022-03-03","TIME_SYSTEM":"UTC","TLE_LINE1":"1 51858U 22022G   22248.91667824 -.00064787  00000-0 -40894-2 0  9997","RA_OF_ASC_NODE":"8.7308","DECAY_DATE":null,"SEMIMAJOR_AXIS":"6917.879","REF_FRAME":"TEME","OBJECT_ID":"2022-022G","EPHEMERIS_TYPE":"0","OBJECT_NAME":"STARLINK-3563","NORAD_CAT_ID":"51858","MEAN_ANOMALY":"100.0351","PERIOD":"95.438","REV_AT_EPOCH":"130"},{"REV_AT_EPOCH":"130","NORAD_CAT_ID":"51859","MEAN_ANOMALY":"23.0709","PERIOD":"95.437","SEMIMAJOR_AXIS":"6917.851","EPHEMERIS_TYPE":"0","REF_FRAME":"TEME","OBJECT_ID":"2022-022H","OBJECT_NAME":"STARLINK-3560","GP_ID":"211835372","CENTER_NAME":"EARTH","TIME_SYSTEM":"UTC","LAUNCH_DATE":"2022-03-03","RA_OF_ASC_NODE":"358.7226","TLE_LINE1":"1 51859U 22022H   22248.91667824 -.00073697  00000-0 -46590-2 0  9997","DECAY_DATE":null,"ARG_OF_PERICENTER":"51.0071","SITE":"AFETR","ELEMENT_SET_NO":"999","EPOCH":"2022-09-05T22:00:00.999936","FILE":"3559723","PERIAPSIS":"538.697","APOAPSIS":"540.734","ECCENTRICITY":"0.00014720","MEAN_MOTION":"15.08849686","MEAN_MOTION_DDOT":"0.0000000000000","MEAN_MOTION_DOT":"-0.00073697","COUNTRY_CODE":"US","MEAN_ELEMENT_THEORY":"SGP4","CLASSIFICATION_TYPE":"U","RCS_SIZE":"LARGE","INCLINATION":"53.2163","OBJECT_TYPE":"PAYLOAD","TLE_LINE2":"2 51859  53.2163 358.7226 0001472  51.0071  23.0709 15.08849686  1301","BSTAR":"-0.00465900000000"},{"OBJECT_TYPE":"PAYLOAD","INCLINATION":"53.2175","BSTAR":"-0.00657540000000","TLE_LINE2":"2 51860  53.2175 358.7225 0001672  51.4629 342.5841 15.08875142  1302","APOAPSIS":"540.795","MEAN_MOTION":"15.08875142","ECCENTRICITY":"0.00016720","MEAN_MOTION_DOT":"-0.00103535","MEAN_MOTION_DDOT":"0.0000000000000","COUNTRY_CODE":"US","RCS_SIZE":"LARGE","CLASSIFICATION_TYPE":"U","MEAN_ELEMENT_THEORY":"SGP4","SITE":"AFETR","EPOCH":"2022-09-05T22:00:00.999936","ELEMENT_SET_NO":"999","PERIAPSIS":"538.481","FILE":"3559723","ARG_OF_PERICENTER":"51.4629","CENTER_NAME":"EARTH","GP_ID":"211835620","LAUNCH_DATE":"2022-03-03","TIME_SYSTEM":"UTC","TLE_LINE1":"1 51860U 22022J   22248.91667824 -.00103535  00000-0 -65754-2 0  9997","RA_OF_ASC_NODE":"358.7225","DECAY_DATE":null,"SEMIMAJOR_AXIS":"6917.773","REF_FRAME":"TEME","OBJECT_ID":"2022-022J","EPHEMERIS_TYPE":"0","OBJECT_NAME":"STARLINK-3559","NORAD_CAT_ID":"51860","MEAN_ANOMALY":"342.5841","PERIOD":"95.435","REV_AT_EPOCH":"130"},{"REV_AT_EPOCH":"130","MEAN_ANOMALY":"55.8198","PERIOD":"95.437","NORAD_CAT_ID":"51861","OBJECT_NAME":"STARLINK-3562","SEMIMAJOR_AXIS":"6917.866","EPHEMERIS_TYPE":"0","OBJECT_ID":"2022-022K","REF_FRAME":"TEME","RA_OF_ASC_NODE":"358.7266","TLE_LINE1":"1 51861U 22022K   22248.91667824 -.00068555  00000-0 -43301-2 0  9994","DECAY_DATE":null,"GP_ID":"211834870","CENTER_NAME":"EARTH","TIME_SYSTEM":"UTC","LAUNCH_DATE":"2022-03-03","ARG_OF_PERICENTER":"58.2283","ELEMENT_SET_NO":"999","EPOCH":"2022-09-05T22:00:00.999936","PERIAPSIS":"538.614","FILE":"3559723","SITE":"AFETR","COUNTRY_CODE":"US","MEAN_ELEMENT_THEORY":"SGP4","RCS_SIZE":"LARGE","CLASSIFICATION_TYPE":"U","APOAPSIS":"540.847","MEAN_MOTION":"15.08844806","ECCENTRICITY":"0.00016140","MEAN_MOTION_DDOT":"0.0000000000000","MEAN_MOTION_DOT":"-0.00068555","BSTAR":"-0.00433010000000","TLE_LINE2":"2 51861  53.2164 358.7266 0001614  58.2283  55.8198 15.08844806  1305","INCLINATION":"53.2164","OBJECT_TYPE":"PAYLOAD"},{"TLE_LINE1":"1 51862U 22022L   22248.91667824 -.00100461  00000-0 -63790-2 0  9992","RA_OF_ASC_NODE":"358.7287","DECAY_DATE":null,"CENTER_NAME":"EARTH","GP_ID":"211834621","TIME_SYSTEM":"UTC","LAUNCH_DATE":"2022-03-03","OBJECT_NAME":"STARLINK-3508","SEMIMAJOR_AXIS":"6917.808","OBJECT_ID":"2022-022L","REF_FRAME":"TEME","EPHEMERIS_TYPE":"0","MEAN_ANOMALY":"355.0972","PERIOD":"95.436","NORAD_CAT_ID":"51862","REV_AT_EPOCH":"130","BSTAR":"-0.00637900000000","TLE_LINE2":"2 51862  53.2188 358.7287 0001414  58.9612 355.0972 15.08863640  1308","OBJECT_TYPE":"PAYLOAD","INCLINATION":"53.2188","COUNTRY_CODE":"US","CLASSIFICATION_TYPE":"U","RCS_SIZE":"LARGE","MEAN_ELEMENT_THEORY":"SGP4","MEAN_MOTION":"15.08863640","APOAPSIS":"540.651","ECCENTRICITY":"0.00014140","MEAN_MOTION_DOT":"-0.00100461","MEAN_MOTION_DDOT":"0.0000000000000","ELEMENT_SET_NO":"999","EPOCH":"2022-09-05T22:00:00.999936","FILE":"3559723","PERIAPSIS":"538.695","SITE":"AFETR","ARG_OF_PERICENTER":"58.9612"},{"REV_AT_EPOCH":"130","PERIOD":"95.437","MEAN_ANOMALY":"89.2549","NORAD_CAT_ID":"51863","OBJECT_NAME":"STARLINK-3555","EPHEMERIS_TYPE":"0","OBJECT_ID":"2022-022M","REF_FRAME":"TEME","SEMIMAJOR_AXIS":"6917.867","DECAY_DATE":null,"RA_OF_ASC_NODE":"358.7384","TLE_LINE1":"1 51863U 22022M   22248.91667824 -.00009764  00000-0 -59614-3 0  9998","TIME_SYSTEM":"UTC","LAUNCH_DATE":"2022-03-03","GP_ID":"211835872","CENTER_NAME":"EARTH","ARG_OF_PERICENTER":"64.7361","PERIAPSIS":"538.639","FILE":"3559723","ELEMENT_SET_NO":"999","EPOCH":"2022-09-05T22:00:00.999936","SITE":"AFETR","MEAN_ELEMENT_THEORY":"SGP4","RCS_SIZE":"LARGE","CLASSIFICATION_TYPE":"U","COUNTRY_CODE":"US","MEAN_MOTION_DDOT":"0.0000000000000","MEAN_MOTION_DOT":"-0.00009764","APOAPSIS":"540.825","MEAN_MOTION":"15.08844400","ECCENTRICITY":"0.00015800","TLE_LINE2":"2 51863  53.2168 358.7384 0001580  64.7361  89.2549 15.08844400  1304","BSTAR":"-0.00059614000000","INCLINATION":"53.2168","OBJECT_TYPE":"PAYLOAD"}];
